DELTA 2 R/B(1)          
1 20453U 90008B   26032.38371310  .00055569  00000+0  75382-3 0  9997
2 20453  35.6059  52.2058 0098131 281.1979  77.7738 15.50934865920483
COSMOS 2058             
1 20465U 90010A   26032.56008659  .00003324  00000+0  19716-3 0  9997
2 20465  82.4639  83.0213 0012019  97.5393 262.7203 15.10985699936785
SL-14 R/B               
1 20466U 90010B   26032.80496068  .00000522  00000+0  60238-4 0  9993
2 20466  82.5039 301.0950 0021220  60.3212 300.0112 14.83534780923167
SL-14 R/B               
1 20511U 90018B   26032.85564303  .00000425  00000+0  50461-4 0  9994
2 20511  82.5190 256.5911 0015647 205.5392 154.5051 14.82107287917271
HST                     
1 20580U 90037B   26032.91782303  .00007382  00000+0  24758-3 0  9998
2 20580  28.4672 283.9238 0002003  77.6200 282.4619 15.28899911767834
SL-16 R/B               
1 20625U 90046B   26032.92711065 -.00000157  00000+0 -56301-4 0  9991
2 20625  70.9994  13.0186 0014421 349.2297  10.8514 14.15005020843330
COSMOS 2084             
1 20663U 90055A   26032.58957374  .00002616  00000+0  19455-3 0  9998
2 20663  62.7904  98.6823 0022907 182.6808 177.4173 15.05412689930885
SL-6 R/B(2)             
1 20666U 90055D   26032.39042369  .00002475  00000+0  19509-3 0  9992
2 20666  62.7842  17.2717 0019434 336.2590  23.7610 15.03387367932731
SL-8 R/B                
1 20775U 90078B   26032.74427574  .00014808  00000+0  43869-3 0  9991
2 20775  82.9039 283.6045 0367635 134.4046 228.7907 14.87852001803950
SL-8 R/B                
1 21088U 91006B   26032.97040130  .00000010  00000+0 -57373-5 0  9993
2 21088  82.9425 196.6038 0023381 133.3873 340.7194 13.77491934759152
OKEAN-3                 
1 21397U 91039A   26032.96748992  .00002828  00000+0  19942-3 0  9998
2 21397  82.5176  11.4397 0016194  92.4583 267.8497 15.04514859859669
COSMOS 2151             
1 21422U 91042A   26032.92839505  .00001770  00000+0  14021-3 0  9996
2 21422  82.4978 118.1699 0012759 174.0385 186.0994 14.99960571857837
