CCSDS_OMM_VERS = 2.0
CREATION_DATE  = 
ORIGINATOR     = 

OBJECT_NAME    = DELTA 2 R/B(1)
OBJECT_ID      = 1990-008B
CENTER_NAME    = EARTH
REF_FRAME      = TEME
TIME_SYSTEM    = UTC
MEAN_ELEMENT_THEORY = SGP/SGP4

EPOCH          = 2026-02-01T09:12:32.811840
MEAN_MOTION    = 15.50934865
ECCENTRICITY   = .00981318
INCLINATION    = 35.6059
RA_OF_ASC_NODE = 52.2058
ARG_OF_PERICENTER = 281.1979
MEAN_ANOMALY   = 77.7738

EPHEMERIS_TYPE = 0
CLASSIFICATION_TYPE = U
NORAD_CAT_ID   = 20453
ELEMENT_SET_NO = 999
REV_AT_EPOCH   = 92048
BSTAR          = .75382098E-3
MEAN_MOTION_DOT = .55569E-3
MEAN_MOTION_DDOT = 0

CCSDS_OMM_VERS = 2.0
CREATION_DATE  = 
ORIGINATOR     = 

OBJECT_NAME    = COSMOS 2058
OBJECT_ID      = 1990-010A
CENTER_NAME    = EARTH
REF_FRAME      = TEME
TIME_SYSTEM    = UTC
MEAN_ELEMENT_THEORY = SGP/SGP4

EPOCH          = 2026-02-01T13:26:31.481376
MEAN_MOTION    = 15.10985699
ECCENTRICITY   = .00120192
INCLINATION    = 82.4639
RA_OF_ASC_NODE = 83.0213
ARG_OF_PERICENTER = 97.5393
MEAN_ANOMALY   = 262.7203

EPHEMERIS_TYPE = 0
CLASSIFICATION_TYPE = U
NORAD_CAT_ID   = 20465
ELEMENT_SET_NO = 999
REV_AT_EPOCH   = 93678
BSTAR          = .19716456E-3
MEAN_MOTION_DOT = .3324E-4
MEAN_MOTION_DDOT = 0

CCSDS_OMM_VERS = 2.0
CREATION_DATE  = 
ORIGINATOR     = 

OBJECT_NAME    = SL-14 R/B
OBJECT_ID      = 1990-010B
CENTER_NAME    = EARTH
REF_FRAME      = TEME
TIME_SYSTEM    = UTC
MEAN_ELEMENT_THEORY = SGP/SGP4

EPOCH          = 2026-02-01T19:19:08.602752
MEAN_MOTION    = 14.83534780
ECCENTRICITY   = .00212208
INCLINATION    = 82.5039
RA_OF_ASC_NODE = 301.0950
ARG_OF_PERICENTER = 60.3212
MEAN_ANOMALY   = 300.0112

EPHEMERIS_TYPE = 0
CLASSIFICATION_TYPE = U
NORAD_CAT_ID   = 20466
ELEMENT_SET_NO = 999
REV_AT_EPOCH   = 92316
BSTAR          = .60237981E-4
MEAN_MOTION_DOT = .522E-5
MEAN_MOTION_DDOT = 0

CCSDS_OMM_VERS = 2.0
CREATION_DATE  = 
ORIGINATOR     = 

OBJECT_NAME    = SL-14 R/B
OBJECT_ID      = 1990-018B
CENTER_NAME    = EARTH
REF_FRAME      = TEME
TIME_SYSTEM    = UTC
MEAN_ELEMENT_THEORY = SGP/SGP4

EPOCH          = 2026-02-01T20:32:07.557792
MEAN_MOTION    = 14.82107287
ECCENTRICITY   = .00156472
INCLINATION    = 82.5190
RA_OF_ASC_NODE = 256.5911
ARG_OF_PERICENTER = 205.5392
MEAN_ANOMALY   = 154.5051

EPHEMERIS_TYPE = 0
CLASSIFICATION_TYPE = U
NORAD_CAT_ID   = 20511
ELEMENT_SET_NO = 999
REV_AT_EPOCH   = 91727
BSTAR          = .504615E-4
MEAN_MOTION_DOT = .425E-5
MEAN_MOTION_DDOT = 0

CCSDS_OMM_VERS = 2.0
CREATION_DATE  = 
ORIGINATOR     = 

OBJECT_NAME    = HST
OBJECT_ID      = 1990-037B
CENTER_NAME    = EARTH
REF_FRAME      = TEME
TIME_SYSTEM    = UTC
MEAN_ELEMENT_THEORY = SGP/SGP4

EPOCH          = 2026-02-01T22:01:39.909792
MEAN_MOTION    = 15.28899911
ECCENTRICITY   = .00020038
INCLINATION    = 28.4672
RA_OF_ASC_NODE = 283.9238
ARG_OF_PERICENTER = 77.6200
MEAN_ANOMALY   = 282.4619

EPHEMERIS_TYPE = 0
CLASSIFICATION_TYPE = U
NORAD_CAT_ID   = 20580
ELEMENT_SET_NO = 999
REV_AT_EPOCH   = 76783
BSTAR          = .2475776E-3
MEAN_MOTION_DOT = .7382E-4
MEAN_MOTION_DDOT = 0

CCSDS_OMM_VERS = 2.0
CREATION_DATE  = 
ORIGINATOR     = 

OBJECT_NAME    = SL-16 R/B
OBJECT_ID      = 1990-046B
CENTER_NAME    = EARTH
REF_FRAME      = TEME
TIME_SYSTEM    = UTC
MEAN_ELEMENT_THEORY = SGP/SGP4

EPOCH          = 2026-02-01T22:15:02.360160
MEAN_MOTION    = 14.15005020
ECCENTRICITY   = .00144212
INCLINATION    = 70.9994
RA_OF_ASC_NODE = 13.0186
ARG_OF_PERICENTER = 349.2297
MEAN_ANOMALY   = 10.8514

EPHEMERIS_TYPE = 0
CLASSIFICATION_TYPE = U
NORAD_CAT_ID   = 20625
ELEMENT_SET_NO = 999
REV_AT_EPOCH   = 84333
BSTAR          = -.56301423E-4
MEAN_MOTION_DOT = -.157E-5
MEAN_MOTION_DDOT = 0

CCSDS_OMM_VERS = 2.0
CREATION_DATE  = 
ORIGINATOR     = 

OBJECT_NAME    = COSMOS 2084
OBJECT_ID      = 1990-055A
CENTER_NAME    = EARTH
REF_FRAME      = TEME
TIME_SYSTEM    = UTC
MEAN_ELEMENT_THEORY = SGP/SGP4

EPOCH          = 2026-02-01T14:08:59.171136
MEAN_MOTION    = 15.05412689
ECCENTRICITY   = .00229079
INCLINATION    = 62.7904
RA_OF_ASC_NODE = 98.6823
ARG_OF_PERICENTER = 182.6808
MEAN_ANOMALY   = 177.4173

EPHEMERIS_TYPE = 0
CLASSIFICATION_TYPE = U
NORAD_CAT_ID   = 20663
ELEMENT_SET_NO = 999
REV_AT_EPOCH   = 93088
BSTAR          = .19455331E-3
MEAN_MOTION_DOT = .2616E-4
MEAN_MOTION_DDOT = 0

CCSDS_OMM_VERS = 2.0
CREATION_DATE  = 
ORIGINATOR     = 

OBJECT_NAME    = SL-6 R/B(2)
OBJECT_ID      = 1990-055D
CENTER_NAME    = EARTH
REF_FRAME      = TEME
TIME_SYSTEM    = UTC
MEAN_ELEMENT_THEORY = SGP/SGP4

EPOCH          = 2026-02-01T09:22:12.606816
MEAN_MOTION    = 15.03387367
ECCENTRICITY   = .00194341
INCLINATION    = 62.7842
RA_OF_ASC_NODE = 17.2717
ARG_OF_PERICENTER = 336.2590
MEAN_ANOMALY   = 23.7610

EPHEMERIS_TYPE = 0
CLASSIFICATION_TYPE = U
NORAD_CAT_ID   = 20666
ELEMENT_SET_NO = 999
REV_AT_EPOCH   = 93273
BSTAR          = .19508612E-3
MEAN_MOTION_DOT = .2475E-4
MEAN_MOTION_DDOT = 0

CCSDS_OMM_VERS = 2.0
CREATION_DATE  = 
ORIGINATOR     = 

OBJECT_NAME    = SL-8 R/B
OBJECT_ID      = 1990-078B
CENTER_NAME    = EARTH
REF_FRAME      = TEME
TIME_SYSTEM    = UTC
MEAN_ELEMENT_THEORY = SGP/SGP4

EPOCH          = 2026-02-01T17:51:45.423936
MEAN_MOTION    = 14.87852001
ECCENTRICITY   = .03676358
INCLINATION    = 82.9039
RA_OF_ASC_NODE = 283.6045
ARG_OF_PERICENTER = 134.4046
MEAN_ANOMALY   = 228.7907

EPHEMERIS_TYPE = 0
CLASSIFICATION_TYPE = U
NORAD_CAT_ID   = 20775
ELEMENT_SET_NO = 999
REV_AT_EPOCH   = 80395
BSTAR          = .43868878E-3
MEAN_MOTION_DOT = .14808E-3
MEAN_MOTION_DDOT = 0

CCSDS_OMM_VERS = 2.0
CREATION_DATE  = 
ORIGINATOR     = 

OBJECT_NAME    = SL-8 R/B
OBJECT_ID      = 1991-006B
CENTER_NAME    = EARTH
REF_FRAME      = TEME
TIME_SYSTEM    = UTC
MEAN_ELEMENT_THEORY = SGP/SGP4

EPOCH          = 2026-02-01T23:17:22.672320
MEAN_MOTION    = 13.77491934
ECCENTRICITY   = .00233817
INCLINATION    = 82.9425
RA_OF_ASC_NODE = 196.6038
ARG_OF_PERICENTER = 133.3873
MEAN_ANOMALY   = 340.7194

EPHEMERIS_TYPE = 0
CLASSIFICATION_TYPE = U
NORAD_CAT_ID   = 21088
ELEMENT_SET_NO = 999
REV_AT_EPOCH   = 75915
BSTAR          = -.5737272E-5
MEAN_MOTION_DOT = .1E-6
MEAN_MOTION_DDOT = 0

CCSDS_OMM_VERS = 2.0
CREATION_DATE  = 
ORIGINATOR     = 

OBJECT_NAME    = OKEAN-3
OBJECT_ID      = 1991-039A
CENTER_NAME    = EARTH
REF_FRAME      = TEME
TIME_SYSTEM    = UTC
MEAN_ELEMENT_THEORY = SGP/SGP4

EPOCH          = 2026-02-01T23:13:11.129088
MEAN_MOTION    = 15.04514859
ECCENTRICITY   = .00161946
INCLINATION    = 82.5176
RA_OF_ASC_NODE = 11.4397
ARG_OF_PERICENTER = 92.4583
MEAN_ANOMALY   = 267.8497

EPHEMERIS_TYPE = 0
CLASSIFICATION_TYPE = U
NORAD_CAT_ID   = 21397
ELEMENT_SET_NO = 999
REV_AT_EPOCH   = 85966
BSTAR          = .19942465E-3
MEAN_MOTION_DOT = .2828E-4
MEAN_MOTION_DDOT = 0

CCSDS_OMM_VERS = 2.0
CREATION_DATE  = 
ORIGINATOR     = 

OBJECT_NAME    = COSMOS 2151
OBJECT_ID      = 1991-042A
CENTER_NAME    = EARTH
REF_FRAME      = TEME
TIME_SYSTEM    = UTC
MEAN_ELEMENT_THEORY = SGP/SGP4

EPOCH          = 2026-02-01T22:16:53.332320
MEAN_MOTION    = 14.99960571
ECCENTRICITY   = .00127594
INCLINATION    = 82.4978
RA_OF_ASC_NODE = 118.1699
ARG_OF_PERICENTER = 174.0385
MEAN_ANOMALY   = 186.0994

EPHEMERIS_TYPE = 0
CLASSIFICATION_TYPE = U
NORAD_CAT_ID   = 21422
ELEMENT_SET_NO = 999
REV_AT_EPOCH   = 85783
BSTAR          = .14020883E-3
MEAN_MOTION_DOT = .177E-4
MEAN_MOTION_DDOT = 0

